start=new Date('2022-05-10T00:00:00.000Z').valueOf();
sats=[{"SITE":"AFETR","LAUNCH_DATE":"2021-03-24","OBJECT_NAME":"STARLINK-2270","REF_FRAME":"TEME","TLE_LINE2":"2 48000  53.0566  45.4423 0002077  39.1600 256.9960 15.06422990  3598","COUNTRY_CODE":"US","EPOCH":"2022-05-09T22:00:00.999936","OBJECT_ID":"2021-024Z","DECAY_DATE":null,"OBJECT_TYPE":"PAYLOAD","ARG_OF_PERICENTER":"39.1600","MEAN_MOTION":"15.06422990","ELEMENT_SET_NO":"999","RCS_SIZE":"LARGE","MEAN_MOTION_DOT":"-0.00054892","PERIOD":"95.591","MEAN_ELEMENT_THEORY":"SGP4","CLASSIFICATION_TYPE":"U","GP_ID":"203142287","ECCENTRICITY":"0.00020770","INCLINATION":"53.0566","MEAN_MOTION_DDOT":"0.0000000000000","BSTAR":"-0.00369230000000","PERIAPSIS":"545.705","SEMIMAJOR_AXIS":"6925.278","FILE":"3438010","REV_AT_EPOCH":"359","APOAPSIS":"548.581","NORAD_CAT_ID":"48000","TLE_LINE1":"1 48000U 21024Z   22129.91667824 -.00054892  00000-0 -36923-2 0  9995","RA_OF_ASC_NODE":"45.4423","MEAN_ANOMALY":"256.9960","CENTER_NAME":"EARTH","EPHEMERIS_TYPE":"0","TIME_SYSTEM":"UTC"},{"TLE_LINE2":"2 48002  53.0549  65.4417 0001764  67.7335 138.4161 15.06413488  3599","OBJECT_NAME":"STARLINK-2265","SITE":"AFETR","LAUNCH_DATE":"2021-03-24","REF_FRAME":"TEME","OBJECT_ID":"2021-024AB","COUNTRY_CODE":"US","EPOCH":"2022-05-09T22:00:00.999936","ARG_OF_PERICENTER":"67.7335","MEAN_MOTION":"15.06413488","ELEMENT_SET_NO":"999","DECAY_DATE":null,"OBJECT_TYPE":"PAYLOAD","GP_ID":"203142025","MEAN_ELEMENT_THEORY":"SGP4","CLASSIFICATION_TYPE":"U","PERIOD":"95.591","MEAN_MOTION_DOT":"-0.00032868","RCS_SIZE":"LARGE","INCLINATION":"53.0549","ECCENTRICITY":"0.00017640","PERIAPSIS":"545.951","SEMIMAJOR_AXIS":"6925.307","BSTAR":"-0.00219700000000","MEAN_MOTION_DDOT":"0.0000000000000","NORAD_CAT_ID":"48002","APOAPSIS":"548.394","REV_AT_EPOCH":"359","FILE":"3438010","EPHEMERIS_TYPE":"0","TIME_SYSTEM":"UTC","MEAN_ANOMALY":"138.4161","CENTER_NAME":"EARTH","RA_OF_ASC_NODE":"65.4417","TLE_LINE1":"1 48002U 21024AB  22129.91667824 -.00032868  00000-0 -21970-2 0  9992"},{"CENTER_NAME":"EARTH","MEAN_ANOMALY":"310.3690","TIME_SYSTEM":"UTC","EPHEMERIS_TYPE":"0","TLE_LINE1":"1 48003U 21024AC  22129.76401243 -.00000389  00000-0 -72266-5 0  9997","RA_OF_ASC_NODE":"141.1335","REV_AT_EPOCH":"6349","NORAD_CAT_ID":"48003","APOAPSIS":"548.640","FILE":"3438010","BSTAR":"-0.00000722660000","SEMIMAJOR_AXIS":"6925.357","PERIAPSIS":"545.805","MEAN_MOTION_DDOT":"0.0000000000000","INCLINATION":"53.0557","ECCENTRICITY":"0.00020470","CLASSIFICATION_TYPE":"U","MEAN_ELEMENT_THEORY":"SGP4","GP_ID":"203140788","MEAN_MOTION_DOT":"-0.00000389","RCS_SIZE":"LARGE","PERIOD":"95.592","ELEMENT_SET_NO":"999","ARG_OF_PERICENTER":"49.7478","MEAN_MOTION":"15.06397118","OBJECT_TYPE":"PAYLOAD","DECAY_DATE":null,"OBJECT_ID":"2021-024AC","EPOCH":"2022-05-09T18:20:10.673952","COUNTRY_CODE":"US","REF_FRAME":"TEME","SITE":"AFETR","LAUNCH_DATE":"2021-03-24","OBJECT_NAME":"STARLINK-2263","TLE_LINE2":"2 48003  53.0557 141.1335 0002047  49.7478 310.3690 15.06397118 63497"},{"FILE":"3438010","REV_AT_EPOCH":"6390","APOAPSIS":"548.756","NORAD_CAT_ID":"48005","TLE_LINE1":"1 48005U 21024AE  22129.67461746  .00002448  00000-0  18316-3 0  9993","RA_OF_ASC_NODE":"111.5270","CENTER_NAME":"EARTH","MEAN_ANOMALY":"309.5012","TIME_SYSTEM":"UTC","EPHEMERIS_TYPE":"0","ECCENTRICITY":"0.00022430","INCLINATION":"53.0540","MEAN_MOTION_DDOT":"0.0000000000000","BSTAR":"0.00018316000000","SEMIMAJOR_AXIS":"6925.337","PERIAPSIS":"545.649","OBJECT_TYPE":"PAYLOAD","DECAY_DATE":null,"ELEMENT_SET_NO":"999","MEAN_MOTION":"15.06403615","ARG_OF_PERICENTER":"50.6175","MEAN_MOTION_DOT":"0.00002448","RCS_SIZE":"LARGE","PERIOD":"95.592","CLASSIFICATION_TYPE":"U","MEAN_ELEMENT_THEORY":"SGP4","GP_ID":"203141035","REF_FRAME":"TEME","OBJECT_NAME":"STARLINK-2254","SITE":"AFETR","LAUNCH_DATE":"2021-03-24","TLE_LINE2":"2 48005  53.0540 111.5270 0002243  50.6175 309.5012 15.06403615 63907","EPOCH":"2022-05-09T16:11:26.948544","COUNTRY_CODE":"US","OBJECT_ID":"2021-024AE"},{"BSTAR":"-0.00445250000000","SEMIMAJOR_AXIS":"6925.236","PERIAPSIS":"546.031","MEAN_MOTION_DDOT":"0.0000000000000","INCLINATION":"53.0553","ECCENTRICITY":"0.00015460","MEAN_ANOMALY":"44.6445","CENTER_NAME":"EARTH","EPHEMERIS_TYPE":"0","TIME_SYSTEM":"UTC","TLE_LINE1":"1 48008U 21024AH  22129.91667824 -.00066055  00000-0 -44525-2 0  9994","RA_OF_ASC_NODE":"45.4348","REV_AT_EPOCH":"360","NORAD_CAT_ID":"48008","APOAPSIS":"548.172","FILE":"3438010","OBJECT_ID":"2021-024AH","COUNTRY_CODE":"US","EPOCH":"2022-05-09T22:00:00.999936","OBJECT_NAME":"STARLINK-2271","SITE":"AFETR","LAUNCH_DATE":"2021-03-24","REF_FRAME":"TEME","TLE_LINE2":"2 48008  53.0553  45.4348 0001546  71.4798  44.6445 15.06436640  3604","MEAN_ELEMENT_THEORY":"SGP4","CLASSIFICATION_TYPE":"U","GP_ID":"203141788","MEAN_MOTION_DOT":"-0.00066055","RCS_SIZE":"LARGE","PERIOD":"95.590","ARG_OF_PERICENTER":"71.4798","MEAN_MOTION":"15.06436640","ELEMENT_SET_NO":"999","OBJECT_TYPE":"PAYLOAD","DECAY_DATE":null},{"CLASSIFICATION_TYPE":"U","MEAN_ELEMENT_THEORY":"SGP4","GP_ID":"203142525","RCS_SIZE":"LARGE","MEAN_MOTION_DOT":"0.00000247","PERIOD":"95.592","ELEMENT_SET_NO":"999","ARG_OF_PERICENTER":"44.5695","MEAN_MOTION":"15.06394559","DECAY_DATE":null,"OBJECT_TYPE":"PAYLOAD","OBJECT_ID":"2021-024AJ","EPOCH":"2022-05-09T16:31:22.529280","COUNTRY_CODE":"US","REF_FRAME":"TEME","LAUNCH_DATE":"2021-03-24","SITE":"AFETR","OBJECT_NAME":"STARLINK-2153","TLE_LINE2":"2 48009  53.0570 121.4533 0002365  44.5695 315.5484 15.06394559 63771","CENTER_NAME":"EARTH","MEAN_ANOMALY":"315.5484","TIME_SYSTEM":"UTC","EPHEMERIS_TYPE":"0","TLE_LINE1":"1 48009U 21024AJ  22129.68845520  .00000247  00000-0  35523-4 0  9999","RA_OF_ASC_NODE":"121.4533","REV_AT_EPOCH":"6377","APOAPSIS":"548.868","NORAD_CAT_ID":"48009","FILE":"3438010","BSTAR":"0.00003552300000","SEMIMAJOR_AXIS":"6925.365","PERIAPSIS":"545.592","MEAN_MOTION_DDOT":"0.0000000000000","INCLINATION":"53.0570","ECCENTRICITY":"0.00023650"},{"MEAN_MOTION_DDOT":"0.0000000000000","BSTAR":"-0.00002297900000","SEMIMAJOR_AXIS":"6925.365","PERIAPSIS":"546.059","ECCENTRICITY":"0.00016900","INCLINATION":"53.0542","TLE_LINE1":"1 48010U 21024AK  22129.76769925 -.00000624  00000-0 -22979-4 0  9996","RA_OF_ASC_NODE":"141.1040","MEAN_ANOMALY":"302.3027","CENTER_NAME":"EARTH","EPHEMERIS_TYPE":"0","TIME_SYSTEM":"UTC","FILE":"3438010","REV_AT_EPOCH":"6350","NORAD_CAT_ID":"48010","APOAPSIS":"548.400","COUNTRY_CODE":"US","EPOCH":"2022-05-09T18:25:29.215200","OBJECT_ID":"2021-024AK","LAUNCH_DATE":"2021-03-24","SITE":"AFETR","OBJECT_NAME":"STARLINK-2226","REF_FRAME":"TEME","TLE_LINE2":"2 48010  53.0542 141.1040 0001690  57.8126 302.3027 15.06394706 63502","MEAN_MOTION_DOT":"-0.00000624","RCS_SIZE":"LARGE","PERIOD":"95.592","MEAN_ELEMENT_THEORY":"SGP4","CLASSIFICATION_TYPE":"U","GP_ID":"203141287","DECAY_DATE":null,"OBJECT_TYPE":"PAYLOAD","MEAN_MOTION":"15.06394706","ARG_OF_PERICENTER":"57.8126","ELEMENT_SET_NO":"999"},{"RA_OF_ASC_NODE":"122.5068","TLE_LINE1":"1 48011U 21024AL  22129.45896781  .00000004  00000-0  19185-4 0  9999","EPHEMERIS_TYPE":"0","TIME_SYSTEM":"UTC","MEAN_ANOMALY":"320.2165","CENTER_NAME":"EARTH","FILE":"3437431","APOAPSIS":"548.849","NORAD_CAT_ID":"48011","REV_AT_EPOCH":"6379","MEAN_MOTION_DDOT":"0.0000000000000","PERIAPSIS":"545.641","SEMIMAJOR_AXIS":"6925.380","BSTAR":"0.00001918500000","ECCENTRICITY":"0.00023160","INCLINATION":"53.0553","PERIOD":"95.593","MEAN_MOTION_DOT":"0.00000004","RCS_SIZE":"LARGE","GP_ID":"203103231","MEAN_ELEMENT_THEORY":"SGP4","CLASSIFICATION_TYPE":"U","OBJECT_TYPE":"PAYLOAD","DECAY_DATE":null,"ARG_OF_PERICENTER":"39.8994","MEAN_MOTION":"15.06389675","ELEMENT_SET_NO":"999","COUNTRY_CODE":"US","EPOCH":"2022-05-09T11:00:54.818784","OBJECT_ID":"2021-024AL","TLE_LINE2":"2 48011  53.0553 122.5068 0002316  39.8994 320.2165 15.06389675 63799","OBJECT_NAME":"STARLINK-2272","SITE":"AFETR","LAUNCH_DATE":"2021-03-24","REF_FRAME":"TEME"},{"MEAN_MOTION_DDOT":"0.0000000000000","PERIAPSIS":"435.259","SEMIMAJOR_AXIS":"6816.219","BSTAR":"0.00046126000000","ECCENTRICITY":"0.00041450","INCLINATION":"53.0551","RA_OF_ASC_NODE":"78.3550","TLE_LINE1":"1 48012U 21024AM  22129.55182383  .00020097  00000-0  46126-3 0  9995","TIME_SYSTEM":"UTC","EPHEMERIS_TYPE":"0","CENTER_NAME":"EARTH","MEAN_ANOMALY":"356.4551","FILE":"3437431","NORAD_CAT_ID":"48012","APOAPSIS":"440.909","REV_AT_EPOCH":"6442","EPOCH":"2022-05-09T13:14:37.578912","COUNTRY_CODE":"US","OBJECT_ID":"2021-024AM","TLE_LINE2":"2 48012  53.0551  78.3550 0004145   3.6484 356.4551 15.42721278 64427","REF_FRAME":"TEME","SITE":"AFETR","LAUNCH_DATE":"2021-03-24","OBJECT_NAME":"STARLINK-2216","PERIOD":"93.342","MEAN_MOTION_DOT":"0.00020097","RCS_SIZE":"LARGE","GP_ID":"203102481","CLASSIFICATION_TYPE":"U","MEAN_ELEMENT_THEORY":"SGP4","OBJECT_TYPE":"PAYLOAD","DECAY_DATE":null,"ELEMENT_SET_NO":"999","MEAN_MOTION":"15.42721278","ARG_OF_PERICENTER":"3.6484"},{"TIME_SYSTEM":"UTC","EPHEMERIS_TYPE":"0","CENTER_NAME":"EARTH","MEAN_ANOMALY":"308.3372","RA_OF_ASC_NODE":"107.7012","TLE_LINE1":"1 48013U 21024AN  22129.41521986  .00000613  00000-0  60067-4 0  9990","NORAD_CAT_ID":"48013","APOAPSIS":"548.781","REV_AT_EPOCH":"6394","FILE":"3437431","PERIAPSIS":"545.598","SEMIMAJOR_AXIS":"6925.324","BSTAR":"0.00006006700000","MEAN_MOTION_DDOT":"0.0000000000000","INCLINATION":"53.0551","ECCENTRICITY":"0.00022980","GP_ID":"203102731","CLASSIFICATION_TYPE":"U","MEAN_ELEMENT_THEORY":"SGP4","PERIOD":"95.592","RCS_SIZE":"LARGE","MEAN_MOTION_DOT":"0.00000613","ELEMENT_SET_NO":"999","MEAN_MOTION":"15.06407981","ARG_OF_PERICENTER":"51.7823","DECAY_DATE":null,"OBJECT_TYPE":"PAYLOAD","OBJECT_ID":"2021-024AN","EPOCH":"2022-05-09T09:57:54.995904","COUNTRY_CODE":"US","TLE_LINE2":"2 48013  53.0551 107.7012 0002298  51.7823 308.3372 15.06407981 63941","REF_FRAME":"TEME","SITE":"AFETR","OBJECT_NAME":"STARLINK-2243","LAUNCH_DATE":"2021-03-24"}];
